      2.10          N: GNSS NAV DATA                        RINEX VERSION / TYPE
fic2rin                                 10/07/2022 00:18:04 PGM / RUN BY / DATE
                                                            END OF HEADER
12 22 10  6 12  0  0.0 -.289044342935D-03 -.443378667114D-11  .000000000000D+00
     .150000000000D+02 -.965625000000D+01  .463733602080D-08  .166200650997D+01
    -.672414898872D-06  .852427957579D-02  .511854887009D-05  .515372330284D+04
     .388800000000D+06 -.707805156708D-07 -.179824512877D+01 -.165775418282D-06
     .967450978902D+00  .283781250000D+03  .131639769478D+01 -.822034241026D-08
    -.221080637467D-09  .100000000000D+01  .223000000000D+04  .000000000000D+00
     .240000000000D+01  .000000000000D+00 -.125728547573D-07  .150000000000D+02
     .381600000000D+06  .400000000000D+01
9  22 10  6 12  0  0.0 -.286876223981D-03  .511590769747D-11  .000000000000D+00
     .100000000000D+02 -.979375000000D+02  .455197532233D-08 -.621134724320D+00
    -.512786209583D-05  .255426287185D-02  .100843608379D-04  .515375127411D+04
     .388800000000D+06 -.391155481339D-07  .229963889209D+01  .130385160446D-07
     .955008389578D+00  .181968750000D+03  .191328120332D+01 -.805354974839D-08
    -.236795577772D-09  .100000000000D+01  .223000000000D+04  .000000000000D+00
     .240000000000D+01  .000000000000D+00  .139698386192D-08  .100000000000D+02
     .381600000000D+06  .400000000000D+01
5  22 10  6 12  0  0.0 -.993506982923D-04 -.147792889038D-11  .000000000000D+00
     .580000000000D+02 -.381562500000D+02  .495806366611D-08 -.779596601876D+00
    -.186637043953D-05  .599575741217D-02  .249594449997D-05  .515354085541D+04
     .388800000000D+06 -.689178705215D-07  .122913620253D+01  .614672899246D-07
     .962316809386D+00  .330937500000D+03  .113340551763D+01 -.857928593312D-08
    -.946467995620D-10  .100000000000D+01  .223000000000D+04  .000000000000D+00
     .240000000000D+01  .000000000000D+00 -.111758708954D-07  .580000000000D+02
     .381600000000D+06  .400000000000D+01
10 22 10  6 12  0  0.0 -.632461160421D-05 -.159161572810D-11  .000000000000D+00
     .300000000000D+02 -.441875000000D+02  .477484174847D-08  .101045512649D+01
    -.216066837311D-05  .799870304763D-02  .237859785557D-05  .515368227768D+04
     .388800000000D+06  .186264514923D-08  .126992575840D+01  .124797224998D-06
     .975057133261D+00  .342000000000D+03 -.251116814492D+01 -.861071581373D-08
    -.224652214809D-09  .100000000000D+01  .223000000000D+04  .000000000000D+00
     .340000000000D+01  .000000000000D+00  .232830643654D-08  .300000000000D+02
     .381600000000D+06  .400000000000D+01
8  22 10  6 12  0  0.0 -.876449048519D-04 -.170530256582D-11  .000000000000D+00
     .540000000000D+02 -.934375000000D+01  .428053544434D-08 -.102495083796D+01
    -.616535544395D-06  .758549117018D-02  .113416463137D-04  .515360187340D+04
     .388800000000D+06  .968575477600D-07 -.844759407232D+00 -.189989805222D-06
     .961833759688D+00  .157687500000D+03  .162243396443D+00 -.791532970525D-08
    -.369658254893D-09  .100000000000D+01  .223000000000D+04  .000000000000D+00
     .240000000000D+01  .000000000000D+00  .512227416039D-08  .540000000000D+02
     .381600000000D+06  .400000000000D+01
7  22 10  6 12  0  0.0  .301360152662D-03 -.352429196937D-11  .000000000000D+00
     .570000000000D+02  .437812500000D+02  .463340728573D-08  .237554584473D+01
     .203400850296D-05  .164123321883D-01  .992789864540D-05  .515363226891D+04
     .388800000000D+06 -.447034835815D-07 -.291225308266D+01 -.350177288055D-06
     .951038420510D+00  .180375000000D+03 -.224110820830D+01 -.785032699763D-08
     .466448000860D-09  .100000000000D+01  .223000000000D+04  .000000000000D+00
     .240000000000D+01  .000000000000D+00 -.111758708954D-07  .570000000000D+02
     .381600000000D+06  .400000000000D+01
11 22 10  6 12  0  0.0 -.228872522712D-04 -.397903932026D-11  .000000000000D+00
     .116000000000D+03  .895625000000D+02  .452125975719D-08 -.139476400874D+01
     .473484396935D-05  .761992763728D-03  .691600143909D-05  .515364953232D+04
     .388800000000D+06  .428408384323D-07  .278362091813D+00  .409781932831D-07
     .964205688249D+00  .247781250000D+03 -.308073574133D+01 -.818712674098D-08
     .394659296287D-09  .100000000000D+01  .223000000000D+04  .000000000000D+00
     .240000000000D+01  .000000000000D+00 -.838190317154D-08  .116000000000D+03
     .381600000000D+06  .400000000000D+01
6  22 10  6 12  0  0.0  .483160372823D-03  .113686837722D-10  .000000000000D+00
     .590000000000D+02  .854375000000D+02  .394837875154D-08 -.304979974918D+01
     .457093119621D-05  .246817956213D-02  .755861401558D-05  .515353655243D+04
     .388800000000D+06 -.167638063431D-07  .231771300651D+00  .111758708954D-06
     .988261512304D+00  .247093750000D+03 -.901249637762D+00 -.784425531615D-08
     .416803075807D-09  .100000000000D+01  .223000000000D+04  .000000000000D+00
     .240000000000D+01  .000000000000D+00  .372529029846D-08  .590000000000D+02
     .381600000000D+06  .400000000000D+01
15 22 10  6 12  0  0.0 -.231596641243D-04  .318323145621D-11  .000000000000D+00
     .580000000000D+02 -.997812500000D+02  .502628079334D-08 -.201162594434D+01
    -.517070293427D-05  .146409525769D-01  .922009348869D-05  .515362749100D+04
     .388800000000D+06  .210478901863D-06  .218742788059D+01 -.372529029846D-07
     .930982890351D+00  .181468750000D+03  .114330056971D+01 -.809819446516D-08
    -.206437170365D-09  .100000000000D+01  .223000000000D+04  .000000000000D+00
     .240000000000D+01  .000000000000D+00 -.107102096081D-07  .580000000000D+02
     .381600000000D+06  .400000000000D+01
13 22 10  6 12  0  0.0  .400969758630D-03  .716227077646D-11  .000000000000D+00
     .360000000000D+02 -.663125000000D+02  .412267172583D-08 -.151356307432D+01
    -.350922346115D-05  .653107604012D-02  .116974115372D-04  .515367964363D+04
     .388800000000D+06  .180676579475D-06  .245619887228D+01  .000000000000D+00
     .969256404140D+00  .159187500000D+03  .942591859214D+00 -.772817905253D-08
    -.185722021782D-09  .100000000000D+01  .223000000000D+04  .000000000000D+00
     .240000000000D+01  .000000000000D+00 -.111758708954D-07  .360000000000D+02
     .381600000000D+06  .400000000000D+01
31 22 10  6 12  0  0.0 -.195845495909D-03 -.136424205266D-11  .000000000000D+00
     .280000000000D+02  .463437500000D+02  .465519390751D-08  .184113629812D+01
     .249035656452D-05  .105847186642D-01  .100843608379D-04  .515359450531D+04
     .388800000000D+06 -.119209289551D-06 -.289322493793D+01  .838190317154D-07
     .955190582859D+00  .187937500000D+03  .438061930146D+00 -.808212236712D-08
     .395016454021D-09  .100000000000D+01  .223000000000D+04  .000000000000D+00
     .240000000000D+01  .000000000000D+00 -.135041773319D-07  .280000000000D+02
     .381600000000D+06  .400000000000D+01
27 22 10  6 12  0  0.0  .202304217964D-03 -.568434188608D-11  .000000000000D+00
     .210000000000D+02  .118750000000D+01  .414195824347D-08 -.102412956452D+01
     .121071934700D-06  .106297874590D-01  .116061419249D-04  .515366258621D+04
     .388800000000D+06  .242143869400D-06 -.823389562212D+00  .614672899246D-07
     .970649966736D+00  .158375000000D+03  .685191145213D+00 -.785747015231D-08
    -.392516349881D-09  .100000000000D+01  .223000000000D+04  .000000000000D+00
     .240000000000D+01  .000000000000D+00  .139698386192D-08  .210000000000D+02
     .381600000000D+06  .400000000000D+01
24 22 10  6 12  0  0.0  .110072549433D-03 -.140971678775D-10  .000000000000D+00
     .170000000000D+02  .485000000000D+02  .492520515456D-08 -.296331230151D+01
     .244192779064D-05  .131335991900D-01  .102128833532D-04  .515367511559D+04
     .388800000000D+06  .279396772385D-07 -.299889227736D+01 -.100582838058D-06
     .934598973684D+00  .166125000000D+03  .844497239145D+00 -.803354891527D-08
     .503949562951D-09  .100000000000D+01  .223000000000D+04  .000000000000D+00
     .240000000000D+01  .000000000000D+00  .279396772385D-08  .170000000000D+02
     .381600000000D+06  .400000000000D+01
29 22 10  6 12  0  0.0 -.557461753488D-03 -.306954461848D-11  .000000000000D+00
     .800000000000D+02  .122812500000D+02  .388159025524D-08 -.113881128667D+01
     .361353158951D-06  .218457798474D-02  .116284936666D-04  .515364162636D+04
     .388800000000D+06 -.558793544769D-08 -.745790228402D+00 -.242143869400D-07
     .979413208834D+00  .168906250000D+03  .247479831619D+01 -.769139180591D-08
    -.262153776900D-09  .100000000000D+01  .223000000000D+04  .000000000000D+00
     .240000000000D+01  .000000000000D+00 -.102445483208D-07  .800000000000D+02
     .381600000000D+06  .400000000000D+01
32 22 10  6 12  0  0.0 -.254889950156D-03 -.117097442853D-10  .000000000000D+00
     .690000000000D+02 -.105500000000D+03  .450697344782D-08 -.310535259154D+00
    -.551715493202D-05  .612799846567D-02  .112690031528D-04  .515366091919D+04
     .388800000000D+06  .000000000000D+00  .231182418339D+01  .838190317154D-07
     .958759823555D+00  .161343750000D+03 -.229666692866D+01 -.813891044686D-08
    -.290012080167D-09  .100000000000D+01  .223000000000D+04  .000000000000D+00
     .240000000000D+01  .000000000000D+00  .465661287308D-09  .690000000000D+02
     .381600000000D+06  .400000000000D+01
21 22 10  6 12  0  0.0  .158450566232D-03 -.568434188608D-12  .000000000000D+00
     .550000000000D+02  .967812500000D+02  .461126350621D-08 -.102243838880D+01
     .485032796860D-05  .243659873959D-01  .912323594093D-05  .515369699478D+04
     .388800000000D+06 -.311061739922D-06  .142874854077D+00 -.221654772758D-06
     .961201032990D+00  .213625000000D+03 -.886147129825D+00 -.847928176755D-08
     .676456748567D-09  .100000000000D+01  .223000000000D+04  .000000000000D+00
     .240000000000D+01  .000000000000D+00 -.102445483208D-07  .550000000000D+02
     .381600000000D+06  .400000000000D+01
